AEROCUBE 8D             
1 41852U 16067E   25089.42015304  .00013049  00000+0  67948-3 0  9996
2 41852  98.1130 282.2099 0004001 210.7039 149.3959 15.16154135458642
AEROCUBE 8C             
1 41853U 16067F   25089.49737405  .00012856  00000+0  66731-3 0  9991
2 41853  98.0969 280.2195 0007100 144.7984 215.3717 15.16255946458643
PROMETHEUS 2-1          
1 41854U 16067G   25089.55700830  .00054438  00000+0  13174-2 0  9995
2 41854  98.0862 294.9470 0008013 145.7557 214.4205 15.40907750459440
PROMETHEUS 2-3          
1 41855U 16067H   25089.50049718  .00053164  00000+0  12896-2 0  9997
2 41855  98.0808 294.1043 0006927 155.6960 204.4612 15.40850580459437
CORVUS BC2              
1 42846U 17042X   25089.38990701  .00006526  00000+0  49895-3 0  9995
2 42846  97.3668 265.4553 0013920 179.8642 180.2590 15.02168302420343
CORVUS BC1              
1 42847U 17042Y   25089.38597588  .00006631  00000+0  50393-3 0  9994
2 42847  97.3688 265.9230 0012853 159.8598 200.3137 15.02402978420368
MIRATA                  
1 43015U 17073C   25089.59923567  .00087955  00000+0  19383-2 0  9990
2 43015  97.5506 341.7760 0099034 343.9078  15.9027 15.38496958399850
MAKERSAT 0              
1 43016U 17073D   25089.11571428  .00025538  00000+0  10824-2 0  9994
2 43016  97.5310 328.0756 0155401  28.1186 332.8328 15.12735084398920
SIRION PATHFINDER-2     
1 43759U 18099B   25089.12001240  .00007621  00000+0  48709-3 0  9995
2 43759  97.4858 143.7751 0010437  39.7547 320.4445 15.08858439345532
CORVUS BC4              
1 43767U 18099K   25089.61351223  .00008230  00000+0  54573-3 0  9990
2 43767  97.4678 140.3986 0010692  89.7182 270.5271 15.07472290345467
MOVE-II                 
1 43780U 18099Y   25089.14773522  .00115127  00000+0  19204-2 0  9998
2 43780  97.4729 160.7328 0001002  83.0079 277.1287 15.51559610346644
SPACEBEE-7              
1 43816U 18099BL  25089.16822269  .00038086  00000+0  12701-2 0  9996
2 43816  97.5026 158.3003 0005699  17.3901 342.7534 15.30964710345852
SHIELDS 1               
1 43850U 18104B   25089.49264712  .00039988  00000+0  58096-3 0  9990
2 43850  85.0120  86.4168 0010524  73.6816 286.5600 15.55556659350382
SONATE                  
1 44400U 19038Q   25089.57377728  .00121996  00000+0  10806-2 0  9997
2 44400  97.7026 108.3763 0010586 141.8499 218.3513 15.68152815318365
DUCHIFAT-3              
1 44854U 19089C   25089.32668022  .00056006  00000+0  13998-2 0  9993
2 44854  36.9455  85.9530 0004864 288.0759  71.9465 15.39101480292007
M2 PATHFINDER           
1 45727U 20037E   25089.05292157  .00007551  00000+0  58805-3 0  9998
2 45727  97.8098 271.1986 0011958 220.1664 139.8677 15.01464567258776
NETSAT-4                
1 46504U 20068U   25089.48301840  .00024560  00000+0  90814-3 0  9998
2 46504  97.8412  63.4500 0010719  91.9186 268.3280 15.27650031247688
NETSAT-3                
1 46505U 20068V   25089.47670193  .00021907  00000+0  84109-3 0  9990
2 46505  97.8410  62.5444 0010090 100.0845 260.1531 15.26434640247651
NETSAT-1                
1 46506U 20068W   25089.38527373  .00015660  00000+0  68177-3 0  9998
2 46506  97.8436  60.7636 0009193 110.1615 250.0609 15.22286554247527
NETSAT-2                
1 46507U 20068X   25089.39100391  .00021761  00000+0  81312-3 0  9992
2 46507  97.8411  62.8835 0008512 111.6331 248.5815 15.27349759247613
WILDTRACKCUBE-SIMBA     
1 47941U 21022K   25089.63293373  .00039691  00000+0  98402-3 0  9995
2 47941  97.4301 352.7935 0009900 194.2824 165.8143 15.40229725222251
GRBALPHA                
1 47959U 21022AD  25089.58421971  .00155059  00000+0  16044-2 0  9993
2 47959  97.4249 359.0719 0008442 156.7650 203.3992 15.64183054221485
LEDSAT                  
1 49069U 21073D   25089.55836737  .00071121  00000+0  12357-2 0  9990
2 49069  97.3948 168.6443 0010292 334.2347  25.8391 15.50525235200397
ROBUSTA-1F (MTCUBE 2)   
1 53109U 22080E   25088.99815625 -.00000003  00000+0  00000+0 0  9990
2 53109  70.1197  92.7203 0008508  22.8100 337.2936  6.42584440 63528
SITRO-AIS 5 (KATYS)     
1 57176U 23091L   25089.60720807  .00014622  00000+0  72167-3 0  9995
2 57176  97.5669 146.4986 0014368 210.8987 149.1402 15.17909530 96809
SITRO-AIS 6 (CHIRKIN)   
1 57192U 23091AC  25089.59070788  .00014360  00000+0  71027-3 0  9990
2 57192  97.5664 146.5031 0014332 210.9798 149.0592 15.17838060 96804
SITRO-AIS 8 (ANOKHIN)   
1 57193U 23091AD  25089.49376311  .00017027  00000+0  81312-3 0  9992
2 57193  97.5665 146.7700 0013865 211.0650 148.9765 15.19028256 96811
SITRO-AIS 7 (FARTUSHNIY)
1 57194U 23091AE  25089.60815420  .00014503  00000+0  71892-3 0  9993
2 57194  97.5667 146.4697 0014145 211.2077 148.8318 15.17763006 96802
SITRO-AIS 10 (BURDAEV)  
1 57199U 23091AK  25089.55808297  .00019387  00000+0  84899-3 0  9992
2 57199  97.5676 148.7979 0010095 193.3975 166.6994 15.22024554 96949
SITRO-AIS 9 (SHCHUKIN)  
1 57201U 23091AM  25089.56803197  .00019291  00000+0  84825-3 0  9994
2 57201  97.5671 148.7441 0010085 193.8065 166.2896 15.21884734 96946
SITRO-AIS 12 (SMIRENNIY)
1 57204U 23091AQ  25089.55958398  .00019868  00000+0  86826-3 0  9993
2 57204  97.5682 148.9864 0010130 187.6648 172.4434 15.22089283 96956
SITRO-AIS 11 (SHEFFER)  
1 57208U 23091AU  25089.58680579  .00018963  00000+0  82501-3 0  9994
2 57208  97.5676 149.0845 0009960 188.1653 171.9422 15.22253076 96960
VERONIKA                
1 58261U 23174F   25089.57918625  .00105491  00000+0  16817-2 0  9990
2 58261  97.4188 172.4521 0006476 284.2888  75.7645 15.52846065 77602
ROBUSTA-1E (ENSO)       
1 58470U 23185J   25089.57642178  .00060571  00000+0  11843-2 0  9994
2 58470  97.3802 162.8386 0006588 333.3089  26.7821 15.47217437 74025
SITRO-AIS 29            
1 59052U 24039B   25089.50848557  .00246758  00000+0  16472-2 0  9998
2 59052  97.4133  62.6155 0004846 179.7983 180.3284 15.74619104 60775
SITRO-AIS 30            
1 59053U 24039C   25089.60902752  .00217867  00000+0  16144-2 0  9993
2 59053  97.4140  62.4643 0004572 192.7070 167.4078 15.72244830 60766
SITRO-AIS 31            
1 59054U 24039D   25089.52193493  .00242951  00000+0  16800-2 0  9990
2 59054  97.4150  62.6013 0004258 186.8009 173.3198 15.73808346 60788
SITRO-AIS 33            
1 59055U 24039E   25089.55129166  .00245981  00000+0  16753-2 0  9993
2 59055  97.4136  62.7145 0004607 183.8991 176.2238 15.74154140 60789
SITRO-AIS 35            
1 59056U 24039F   25089.53238905  .00255855  00000+0  17039-2 0  9993
2 59056  97.4149  62.7468 0004192 180.2362 179.8901 15.74651691 60783
SITRO-AIS 32            
1 59057U 24039G   25089.55275777  .00219562  00000+0  15854-2 0  9992
2 59057  97.4154  62.5753 0004259 188.4631 171.6562 15.72855289 60777
SITRO-AIS 34            
1 59058U 24039H   25089.55336167  .00237429  00000+0  16206-2 0  9998
2 59058  97.4140  62.7175 0004476 182.0887 178.0359 15.74127566 60785
SITRO-AIS 36            
1 59059U 24039J   25089.53565783  .00241810  00000+0  16798-2 0  9990
2 59059  97.4133  62.7216 0004223 180.3497 179.7764 15.73703991 60781
SITRO-AIS 49            
1 59060U 24039K   25089.59098285  .00225148  00000+0  16353-2 0  9999
2 59060  97.4143  62.6609 0004386 186.4775 173.6432 15.72699921 60786
SITRO-AIS 50            
1 59061U 24039L   25089.50947787  .00269243  00000+0  17030-2 0  9998
2 59061  97.4120  62.9050 0004953 175.6109 184.5201 15.75804513 60790
SITRO-AIS 51            
1 59062U 24039M   25089.10727838  .00248700  00000+0  15547-2 0  9994
2 59062  97.4126  62.5272 0004689 176.3670 183.7630 15.76131982 60731
SITRO-AIS 52            
1 59063U 24039N   25089.08100054  .00236433  00000+0  14659-2 0  9990
2 59063  97.4131  62.5811 0004273 176.5870 183.5426 15.76356197 60738
SITRO-AIS 25            
1 59066U 24039R   25089.61640884  .00007216  00000+0  61679-3 0  9992
2 59066  95.3774 291.7547 0159570  73.7404 288.1306 14.88363688 58635
SITRO-AIS 26            
1 59067U 24039S   25089.56807563  .00008204  00000+0  70295-3 0  9998
2 59067  95.3776 291.6919 0159849  74.0928 287.7845 14.88220363 58628
SITRO-AIS 27            
1 59068U 24039T   25089.57835791  .00007900  00000+0  67265-3 0  9999
2 59068  95.3778 291.7980 0159197  73.5328 288.3322 14.88533768 58638
SITRO-AIS 28            
1 59071U 24039U   25089.56736085  .00007882  00000+0  67075-3 0  9996
2 59071  95.3778 291.8128 0158997  73.5010 288.3615 14.88573064 58630
GRBBETA                 
1 60237U 24128C   25089.24839548  .00007529  00000+0  57817-3 0  9995
2 60237  61.9935 328.1214 0045180  42.1066 318.3481 15.01748092 39480
OOV-CUBE (TUBSAT-30)    
1 60240U 24128F   25089.40189582  .00005109  00000+0  42002-3 0  9995
2 60240  61.9980 329.4944 0044261  38.4179 322.0048 14.99684088 39481
ROBUSTA-3A (MEDITERRAN*)
1 60243U 24128J   25089.37227503  .00011787  00000+0  86212-3 0  9990
2 60243  61.9904 327.5243 0043323  35.4799 324.9160 15.03247428 39513
LASARSAT                
1 62391U 24247Q   25089.29156623  .00023545  00000+0  99207-3 0  9996
2 62391  44.9930 187.4683 0006912 326.9956  33.0493 15.22978228 15180
CROCUBE                 
1 62394U 24247T   25089.55480013  .00025511  00000+0  10704-2 0  9990
2 62394  44.9922 186.0476 0007557 329.4052  30.6388 15.23076268 15225
